NORAD_CAT_ID,OBJECT_NAME,OBJECT_TYPE,EPOCH,MEAN_MOTION,ECCENTRICITY,INCLINATION,RA_OF_ASC_NODE,ARG_OF_PERICENTER,MEAN_ANOMALY,BSTAR,MEAN_MOTION_DOT,MEAN_MOTION_DDOT,TLE_LINE0,TLE_LINE1,TLE_LINE2,SEMIMAJOR_AXIS,PERIOD,APOGEE,PERIGEE,DECAYED
56471.0,STARLINK-5521,PAYLOAD,2024-05-01 10:55:15,14.98346998,0.0002903,70.0016,32.1083,270.2948,89.7878,-0.00023063,-2.845e-05,0.0,0 STARLINK-5521,1 56471U 23064Z   24122.45504537 -.00002845  00000-0 -23063-3 0  9990,2 56471  70.0016  32.1083 0002903 270.2948  89.7878 14.98346998 54650,6950.14,96.106,574.023,569.988,0.0
56471.0,STARLINK-5521,PAYLOAD,2024-05-02 10:57:16,14.98336816,0.0003056,70.0006,29.5812,273.5913,86.4897,-4.0853e-05,-5.81e-06,0.0,0 STARLINK-5521,1 56471U 23064Z   24123.45644307 -.00000581  00000-0 -40853-4 0  9993,2 56471  70.0006  29.5812 0003056 273.5913  86.4897 14.98336816 54807,6950.172,96.107,574.161,569.913,0.0
56471.0,STARLINK-5521,PAYLOAD,2024-05-02 20:34:05,14.98328531,0.0002654,70.0014,28.5739,263.9969,96.0887,-1.2011e-05,-2.36e-06,0.0,0 STARLINK-5521,1 56471U 23064Z   24123.85700849 -.00000236  00000-0 -12011-4 0  9993,2 56471  70.0014  28.5739 0002654 263.9969  96.0887 14.98328531 54867,6950.197,96.107,573.907,570.218,0.0
56471.0,STARLINK-5521,PAYLOAD,2024-05-03 10:59:18,14.98323865,0.0003001,70.0007,27.0566,270.5081,89.5735,-0.00011572,-1.473e-05,0.0,0 STARLINK-5521,1 56471U 23064Z   24124.45785282 -.00001473  00000-0 -11572-3 0  9998,2 56471  70.0007  27.0566 0003001 270.5081  89.5735 14.98323865 54591,6950.212,96.107,574.163,569.991,0.0
56471.0,STARLINK-5521,PAYLOAD,2024-05-03 20:36:07,14.9832,0.0002774,70.0009,26.0478,271.7291,88.355,-0.00019653,-2.436e-05,0.0,0 STARLINK-5521,1 56471U 23064Z   24124.85842011 -.00002436  00000-0 -19653-3 0  9994,2 56471  70.0009  26.0478 0002774 271.7291  88.3550 14.98320000 55014,6950.224,96.108,574.017,570.161,0.0
56471.0,STARLINK-5521,PAYLOAD,2024-05-03 22:12:15,14.98318438,0.0002827,70.0011,25.8795,271.4209,88.6626,-0.00020751,-2.567e-05,0.0,0 STARLINK-5521,1 56471U 23064Z   24124.92518172 -.00002567  00000-0 -20751-3 0  9996,2 56471  70.0011  25.8795 0002827 271.4209  88.6626 14.98318438 54660,6950.229,96.108,574.058,570.129,0.0
56471.0,STARLINK-5521,PAYLOAD,2024-05-04 20:38:08,14.98321931,0.0002989,70.0005,23.5226,270.2326,89.849,1.7064e-05,1.11e-06,0.0,0 STARLINK-5521,1 56471U 23064Z   24125.85981923  .00000111  00000-0  17064-4 0  9992,2 56471  70.0005  23.5226 0002989 270.2326  89.8490 14.98321931 55163,6950.218,96.108,574.16,570.005,0.0
56471.0,STARLINK-5521,PAYLOAD,2024-05-05 03:02:40,14.98327973,0.0002969,70.0005,22.8483,268.0457,92.0362,5.6508e-06,-2.6e-07,0.0,0 STARLINK-5521,1 56471U 23064Z   24126.12685667 -.00000026  00000-0  56508-5 0  9992,2 56471  70.0005  22.8483 0002969 268.0457  92.0362 14.98327973 54848,6950.199,96.107,574.128,570.001,0.0
56471.0,STARLINK-5521,PAYLOAD,2024-05-05 20:40:08,14.98329433,0.0003157,70.0003,20.9971,267.4321,92.6477,0.00027575,3.199e-05,0.0,0 STARLINK-5521,1 56471U 23064Z   24126.86120846  .00003199  00000-0  27575-3 0  9999,2 56471  70.0003  20.9971 0003157 267.4321  92.6477 14.98329433 55319,6950.195,96.107,574.254,569.865,0.0
56471.0,STARLINK-5521,PAYLOAD,2024-05-05 22:16:16,14.98330209,0.0003152,70.0004,20.8288,267.4297,92.6501,0.00027815,3.227e-05,0.0,0 STARLINK-5521,1 56471U 23064Z   24126.92796795  .00003227  00000-0  27815-3 0  9997,2 56471  70.0004  20.8288 0003152 267.4297  92.6501 14.98330209 54968,6950.192,96.107,574.248,569.867,0.0
56471.0,STARLINK-5521,PAYLOAD,2024-05-06 03:04:39,14.98340121,0.0003134,70.0002,20.3237,266.9512,93.1289,0.00030869,3.593e-05,0.0,0 STARLINK-5521,1 56471U 23064Z   24127.12824008  .00003593  00000-0  30869-3 0  9998,2 56471  70.0002  20.3237 0003134 266.9512  93.1289 14.98340121 55356,6950.162,96.106,574.205,569.848,0.0
56471.0,STARLINK-5521,PAYLOAD,2024-05-06 20:42:09,14.98334492,0.0002722,70.002,18.4751,262.9459,97.139,9.2962e-05,1.017e-05,0.0,0 STARLINK-5521,1 56471U 23064Z   24127.86260749  .00001017  00000-0  92962-4 0  9997,2 56471  70.0020  18.4751 0002722 262.9459  97.1390 14.98334492 55466,6950.179,96.107,573.936,570.152,0.0
56471.0,STARLINK-5521,PAYLOAD,2024-05-06 22:18:17,14.98333656,0.000278,70.0018,18.3068,262.3629,97.7215,9.7332e-05,1.069e-05,0.0,0 STARLINK-5521,1 56471U 23064Z   24127.92936758  .00001069  00000-0  97332-4 0  9997,2 56471  70.0018  18.3068 0002780 262.3629  97.7215 14.98333656 55115,6950.182,96.107,573.979,570.114,0.0
56471.0,STARLINK-5521,PAYLOAD,2024-05-07 03:06:41,14.98334822,0.0002779,70.0017,17.8019,260.8503,99.2342,6.4613e-05,6.78e-06,0.0,0 STARLINK-5521,1 56471U 23064Z   24128.12964678  .00000678  00000-0  64613-4 0  9993,2 56471  70.0017  17.8019 0002779 260.8503  99.2342 14.98334822 55143,6950.178,96.107,573.974,570.112,0.0
56471.0,STARLINK-5521,PAYLOAD,2024-05-07 20:44:10,14.9833306,0.0003178,69.9999,15.9475,271.0673,89.0122,-0.0001783,-2.22e-05,0.0,0 STARLINK-5521,1 56471U 23064Z   24128.86401199 -.00002220  00000-0 -17830-3 0  9993,2 56471  69.9999  15.9475 0003178 271.0673  89.0122 14.98333060 55618,6950.183,96.107,574.257,569.84,0.0
56471.0,STARLINK-5521,PAYLOAD,2024-05-07 22:20:18,14.98333209,0.000308,70.0,15.779,269.4434,90.6372,-0.00017692,-2.204e-05,0.0,0 STARLINK-5521,1 56471U 23064Z   24128.93077155 -.00002204  00000-0 -17692-3 0  9990,2 56471  70.0000  15.7790 0003080 269.4434  90.6372 14.98333209 55261,6950.183,96.107,574.189,569.907,0.0
56471.0,STARLINK-5521,PAYLOAD,2024-05-08 09:33:14,14.98341888,0.0003194,69.9998,14.6001,269.5592,90.5201,-0.00014956,-1.878e-05,0.0,0 STARLINK-5521,1 56471U 23064Z   24129.39808294 -.00001878  00000-0 -14956-3 0  9993,2 56471  69.9998  14.6001 0003194 269.5592  90.5201 14.98341888 55698,6950.156,96.106,574.241,569.801,0.0
56471.0,STARLINK-5521,PAYLOAD,2024-05-08 22:22:18,14.98339443,0.0002997,70.0002,13.254,268.6621,91.4194,3.6739e-05,3.45e-06,0.0,0 STARLINK-5521,1 56471U 23064Z   24129.93215821  .00000345  00000-0  36739-4 0  9991,2 56471  70.0002  13.2540 0002997 268.6621  91.4194 14.98339443 55418,6950.164,96.106,574.112,569.946,0.0
56471.0,STARLINK-5521,PAYLOAD,2024-05-09 09:35:15,14.98334088,0.0002921,70.0005,12.0769,265.7063,94.3762,-3.3584e-05,-4.94e-06,0.0,0 STARLINK-5521,1 56471U 23064Z   24130.39948159 -.00000494  00000-0 -33584-4 0  9992,2 56471  70.0005  12.0769 0002921 265.7063  94.3762 14.98334088 55846,6950.18,96.107,574.075,570.015,0.0
56471.0,STARLINK-5521,PAYLOAD,2024-05-09 20:48:11,14.98326457,0.000299,70.0001,10.897,271.9457,88.136,2.4369e-05,1.98e-06,0.0,0 STARLINK-5521,1 56471U 23064Z   24130.86680524  .00000198  00000-0  24369-4 0  9993,2 56471  70.0001  10.8970 0002990 271.9457  88.1360 14.98326457 55918,6950.204,96.107,574.147,569.991,0.0
56471.0,STARLINK-5521,PAYLOAD,2024-05-09 22:24:20,14.98325613,0.0003001,70.0002,10.7287,271.9816,88.0999,1.3188e-05,6.4e-07,0.0,0 STARLINK-5521,1 56471U 23064Z   24130.93356621  .00000064  00000-0  13188-4 0  9998,2 56471  70.0002  10.7287 0003001 271.9816  88.0999 14.98325613 55563,6950.206,96.107,574.157,569.986,0.0
56471.0,STARLINK-5521,PAYLOAD,2024-05-10 09:37:16,14.98328835,0.0003059,70.0001,9.55,271.7013,88.3795,-1.6348e-05,-2.88e-06,0.0,0 STARLINK-5521,1 56471U 23064Z   24131.40088505 -.00000288  00000-0 -16348-4 0  9995,2 56471  70.0001   9.5500 0003059 271.7013  88.3795 14.98328835 55630,6950.196,96.107,574.188,569.935,0.0
56471.0,STARLINK-5521,PAYLOAD,2024-05-10 20:50:12,14.98330847,0.0003048,70.0006,8.371,271.879,88.202,-3.7546e-05,-5.41e-06,0.0,0 STARLINK-5521,1 56471U 23064Z   24131.86820420 -.00000541  00000-0 -37546-4 0  9990,2 56471  70.0006   8.3710 0003048 271.8790  88.2020 14.98330847 56060,6950.19,96.107,574.174,569.937,0.0
56471.0,STARLINK-5521,PAYLOAD,2024-05-10 22:26:20,14.98331704,0.0002848,70.0005,8.2027,266.3765,93.7068,-4.7864e-05,-6.64e-06,0.0,0 STARLINK-5521,1 56471U 23064Z   24131.93496384 -.00000664  00000-0 -47864-4 0  9996,2 56471  70.0005   8.2027 0002848 266.3765  93.7068 14.98331704 55714,6950.188,96.107,574.032,570.073,0.0
56471.0,STARLINK-5521,PAYLOAD,2024-05-11 01:38:36,14.98340963,0.0002671,70.0014,7.8673,273.2437,86.8416,5.216e-05,5.3e-06,0.0,0 STARLINK-5521,1 56471U 23064Z   24132.06847687  .00000530  00000-0  52160-4 0  9992,2 56471  70.0014   7.8673 0002671 273.2437  86.8416 14.98340963 56092,6950.159,96.106,573.88,570.168,0.0
56471.0,STARLINK-5521,PAYLOAD,2024-05-11 20:52:13,14.98309132,0.000267,70.0003,5.8479,265.8985,94.1868,-0.00024828,-3.052e-05,0.0,0 STARLINK-5521,1 56471U 23064Z   24132.86960467 -.00003052  00000-0 -24828-3 0  9995,2 56471  70.0003   5.8479 0002670 265.8985  94.1868 14.98309132 56216,6950.257,96.108,573.978,570.267,0.0
56471.0,STARLINK-5521,PAYLOAD,2024-05-11 22:28:21,14.98309935,0.0002578,70.0008,5.6803,256.1962,103.891,-0.00026294,-3.227e-05,0.0,0 STARLINK-5521,1 56471U 23064Z   24132.93636508 -.00003227  00000-0 -26294-3 0  9992,2 56471  70.0008   5.6803 0002578 256.1962 103.8910 14.98309935 55862,6950.255,96.108,573.912,570.328,0.0
56471.0,STARLINK-5521,PAYLOAD,2024-05-12 01:40:41,14.98265804,0.0002851,70.001,5.343,272.5661,87.5172,-0.00074161,-8.916e-05,0.0,0 STARLINK-5521,1 56471U 23064Z   24133.06992797 -.00008916  00000-0 -74161-3 0  9998,2 56471  70.0010   5.3430 0002851 272.5661  87.5172 14.98265804 56247,6950.391,96.111,574.238,570.275,0.0
56471.0,STARLINK-5521,PAYLOAD,2024-05-12 20:54:23,14.98240159,0.0003,69.9998,3.323,271.6426,88.4389,-0.00082105,-9.853e-05,0.0,0 STARLINK-5521,1 56471U 23064Z   24133.87110096 -.00009853  00000-0 -82105-3 0  9999,2 56471  69.9998   3.3230 0003000 271.6426  88.4389 14.98240159 56360,6950.471,96.113,574.421,570.251,0.0
56471.0,STARLINK-5521,PAYLOAD,2024-05-12 22:30:30,14.98247687,0.0002376,70.0021,3.1555,232.672,127.4223,-0.00061991,-7.466e-05,0.0,0 STARLINK-5521,1 56471U 23064Z   24133.93785306 -.00007466  00000-0 -61991-3 0  9996,2 56471  70.0021   3.1555 0002376 232.6720 127.4223 14.98247687 56013,6950.447,96.112,573.964,570.661,0.0
